{"type": "FeatureCollection", "features": [ {"type": "Feature", "properties": {"norad_id": 66989, "name": "CZ-4B R/B", "group": "last-30-days", "lat": -22.758038137319158, "lon": -119.85550001681197, "alt_km": 412.4805820929587, "timestamp": "2025-12-23T05:02:10.752218+00:00", "meta": {"OBJECT_NAME": "CZ-4B R/B", "OBJECT_ID": "2025-289B", "EPOCH": "2025-12-22T08:16:26.469984", "MEAN_MOTION": 15.69480483, "ECCENTRICITY": 0.01418055, "INCLINATION": 97.5241, "RA_OF_ASC_NODE": 62.393, "ARG_OF_PERICENTER": 326.5313, "MEAN_ANOMALY": 32.7045, "EPHEMERIS_TYPE": 0, "CLASSIFICATION_TYPE": "U", "NORAD_CAT_ID": 66989, "ELEMENT_SET_NO": 999, "REV_AT_EPOCH": 207, "BSTAR": 0.00063039191, "MEAN_MOTION_DOT": 0.00133039, "MEAN_MOTION_DDOT": 7.36681e-06}, "tle": {"line1": "1 66989U 25289B   25356.34475081  .00133039  73668-5  63039-3 0  9995", "line2": "2 66989  97.5241  62.3930 0141805 326.5313  32.7045 15.69480483  2071"}}, "geometry": {"type": "Point", "coordinates": [-119.85550001681197, -22.758038137319158]}}, {"type": "Feature", "properties": {"norad_id": 66990, "name": "TJS-22", "group": "last-30-days", "lat": -1.5445579636909457, "lon": -126.01733934226179, "alt_km": 35774.358872094395, "timestamp": "2025-12-23T05:02:10.752230+00:00", "meta": {"OBJECT_NAME": "TJS-22", "OBJECT_ID": "2025-290A", "EPOCH": "2025-12-22T08:32:31.305696", "MEAN_MOTION": 1.00271081, "ECCENTRICITY": 0.00034313, "INCLINATION": 1.9644, "RA_OF_ASC_NODE": 285.0284, "ARG_OF_PERICENTER": 342.6366, "MEAN_ANOMALY": 18.08, "EPHEMERIS_TYPE": 0, "CLASSIFICATION_TYPE": "U", "NORAD_CAT_ID": 66990, "ELEMENT_SET_NO": 999, "REV_AT_EPOCH": 25, "BSTAR": 0, "MEAN_MOTION_DOT": 1.7e-07, "MEAN_MOTION_DDOT": 0}, "tle": {"line1": "1 66990U 25290A   25356.35591789  .00000017  00000+0  00000+0 0  9992", "line2": "2 66990   1.9644 285.0284 0003431 342.6366  18.0800  1.00271081   250"}}, "geometry": {"type": "Point", "coordinates": [-126.01733934226179, -1.5445579636909457]}}, {"type": "Feature", "properties": {"norad_id": 66991, "name": "CZ-3B R/B", "group": "last-30-days", "lat": -2.9386496105405957, "lon": -67.92432934021916, "alt_km": 31540.774757752257, "timestamp": "2025-12-23T05:02:10.752242+00:00", "meta": {"OBJECT_NAME": "CZ-3B R/B", "OBJECT_ID": "2025-290B", "EPOCH": "2025-12-15T17:23:33.043200", "MEAN_MOTION": 2.38388611, "ECCENTRICITY": 0.7240884, "INCLINATION": 28.4636, "RA_OF_ASC_NODE": 300.4666, "ARG_OF_PERICENTER": 182.7002, "MEAN_ANOMALY": 168.625, "EPHEMERIS_TYPE": 0, "CLASSIFICATION_TYPE": "U", "NORAD_CAT_ID": 66991, "ELEMENT_SET_NO": 999, "REV_AT_EPOCH": 16, "BSTAR": 0.00075879, "MEAN_MOTION_DOT": 0.00057911, "MEAN_MOTION_DDOT": -2.0514e-07}, "tle": {"line1": "1 66991U 25290B   25349.72468800  .00057911 -20514-6  75879-3 0  9998", "line2": "2 66991  28.4636 300.4666 7240884 182.7002 168.6250  2.38388611   165"}}, "geometry": {"type": "Point", "coordinates": [-67.92432934021916, -2.9386496105405957]}}, {"type": "Feature", "properties": {"norad_id": 66993, "name": "2025-292A", "group": "last-30-days", "lat": 29.57712102258687, "lon": -105.96538322484764, "alt_km": 550.4096802542263, "timestamp": "2025-12-23T05:02:10.752253+00:00", "meta": {"OBJECT_NAME": "2025-292A", "OBJECT_ID": "2025-292A", "EPOCH": "2025-12-22T21:59:08.810880", "MEAN_MOTION": 15.04565568, "ECCENTRICITY": 0.00143062, "INCLINATION": 97.6508, "RA_OF_ASC_NODE": 69.3683, "ARG_OF_PERICENTER": 235.2067, "MEAN_ANOMALY": 124.7814, "EPHEMERIS_TYPE": 0, "CLASSIFICATION_TYPE": "U", "NORAD_CAT_ID": 66993, "ELEMENT_SET_NO": 999, "REV_AT_EPOCH": 192, "BSTAR": 0.00029485913, "MEAN_MOTION_DOT": 4.083e-05, "MEAN_MOTION_DDOT": 0}, "tle": {"line1": "1 66993U 25292A   25356.91607420  .00004083  00000+0  29486-3 0  9999", "line2": "2 66993  97.6508  69.3683 0014306 235.2067 124.7814 15.04565568  1928"}}, "geometry": {"type": "Point", "coordinates": [-105.96538322484764, 29.57712102258687]}}, {"type": "Feature", "properties": {"norad_id": 66994, "name": "2025-292B", "group": "last-30-days", "lat": 27.521209506733396, "lon": -106.32188365073267, "alt_km": 550.2992815351317, "timestamp": "2025-12-23T05:02:10.752265+00:00", "meta": {"OBJECT_NAME": "2025-292B", "OBJECT_ID": "2025-292B", "EPOCH": "2025-12-22T21:58:36.505056", "MEAN_MOTION": 15.0461152, "ECCENTRICITY": 0.0014095, "INCLINATION": 97.6517, "RA_OF_ASC_NODE": 69.3701, "ARG_OF_PERICENTER": 235.4291, "MEAN_ANOMALY": 124.5606, "EPHEMERIS_TYPE": 0, "CLASSIFICATION_TYPE": "U", "NORAD_CAT_ID": 66994, "ELEMENT_SET_NO": 999, "REV_AT_EPOCH": 192, "BSTAR": 0.00035915994, "MEAN_MOTION_DOT": 4.993e-05, "MEAN_MOTION_DDOT": 0}, "tle": {"line1": "1 66994U 25292B   25356.91570029  .00004993  00000+0  35916-3 0  9999", "line2": "2 66994  97.6517  69.3701 0014095 235.4291 124.5606 15.04611520  1923"}}, "geometry": {"type": "Point", "coordinates": [-106.32188365073267, 27.521209506733396]}}, {"type": "Feature", "properties": {"norad_id": 66995, "name": "2025-292C", "group": "last-30-days", "lat": 26.76826347770164, "lon": -106.45153175077755, "alt_km": 550.2352403831301, "timestamp": "2025-12-23T05:02:10.752275+00:00", "meta": {"OBJECT_NAME": "2025-292C", "OBJECT_ID": "2025-292C", "EPOCH": "2025-12-22T21:58:24.749472", "MEAN_MOTION": 15.04640737, "ECCENTRICITY": 0.00144025, "INCLINATION": 97.6507, "RA_OF_ASC_NODE": 69.369, "ARG_OF_PERICENTER": 235.8096, "MEAN_ANOMALY": 124.1766, "EPHEMERIS_TYPE": 0, "CLASSIFICATION_TYPE": "U", "NORAD_CAT_ID": 66995, "ELEMENT_SET_NO": 999, "REV_AT_EPOCH": 192, "BSTAR": 0.00039933125, "MEAN_MOTION_DOT": 5.564e-05, "MEAN_MOTION_DDOT": 0}, "tle": {"line1": "1 66995U 25292C   25356.91556423  .00005564  00000+0  39933-3 0  9990", "line2": "2 66995  97.6507  69.3690 0014402 235.8096 124.1766 15.04640737  1924"}}, "geometry": {"type": "Point", "coordinates": [-106.45153175077755, 26.76826347770164]}}, {"type": "Feature", "properties": {"norad_id": 66996, "name": "2025-292D", "group": "last-30-days", "lat": 24.920160338041992, "lon": -106.75935204923911, "alt_km": 550.676582686764, "timestamp": "2025-12-23T05:02:10.752287+00:00", "meta": {"OBJECT_NAME": "2025-292D", "OBJECT_ID": "2025-292D", "EPOCH": "2025-12-22T21:57:55.502208", "MEAN_MOTION": 15.0466027, "ECCENTRICITY": 0.00135285, "INCLINATION": 97.6502, "RA_OF_ASC_NODE": 69.3685, "ARG_OF_PERICENTER": 238.3806, "MEAN_ANOMALY": 121.6101, "EPHEMERIS_TYPE": 0, "CLASSIFICATION_TYPE": "U", "NORAD_CAT_ID": 66996, "ELEMENT_SET_NO": 999, "REV_AT_EPOCH": 192, "BSTAR": 0.00026456941, "MEAN_MOTION_DOT": 3.665e-05, "MEAN_MOTION_DDOT": 0}, "tle": {"line1": "1 66996U 25292D   25356.91522572  .00003665  00000+0  26457-3 0  9996", "line2": "2 66996  97.6502  69.3685 0013528 238.3806 121.6101 15.04660270  1928"}}, "geometry": {"type": "Point", "coordinates": [-106.75935204923911, 24.920160338041992]}}, {"type": "Feature", "properties": {"norad_id": 66997, "name": "2025-292E", "group": "last-30-days", "lat": 21.094533420816674, "lon": -107.36193219580215, "alt_km": 550.5053086400903, "timestamp": "2025-12-23T05:02:10.752297+00:00", "meta": {"OBJECT_NAME": "2025-292E", "OBJECT_ID": "2025-292E", "EPOCH": "2025-12-22T21:56:55.224384", "MEAN_MOTION": 15.04748668, "ECCENTRICITY": 0.00139155, "INCLINATION": 97.6522, "RA_OF_ASC_NODE": 69.3726, "ARG_OF_PERICENTER": 239.3833, "MEAN_ANOMALY": 120.6022, "EPHEMERIS_TYPE": 0, "CLASSIFICATION_TYPE": "U", "NORAD_CAT_ID": 66997, "ELEMENT_SET_NO": 999, "REV_AT_EPOCH": 191, "BSTAR": 0.00029837251, "MEAN_MOTION_DOT": 4.152e-05, "MEAN_MOTION_DDOT": 0}, "tle": {"line1": "1 66997U 25292E   25356.91452806  .00004152  00000+0  29837-3 0  9996", "line2": "2 66997  97.6522  69.3726 0013915 239.3833 120.6022 15.04748668  1916"}}, "geometry": {"type": "Point", "coordinates": [-107.36193219580215, 21.094533420816674]}}, {"type": "Feature", "properties": {"norad_id": 66998, "name": "2025-292F", "group": "last-30-days", "lat": 13.627981117108094, "lon": -108.46027251597363, "alt_km": 549.8216691481175, "timestamp": "2025-12-23T05:02:10.752307+00:00", "meta": {"OBJECT_NAME": "2025-292F", "OBJECT_ID": "2025-292F", "EPOCH": "2025-12-22T21:54:57.640032", "MEAN_MOTION": 15.04923856, "ECCENTRICITY": 0.00150506, "INCLINATION": 97.6541, "RA_OF_ASC_NODE": 69.3773, "ARG_OF_PERICENTER": 240.3264, "MEAN_ANOMALY": 119.6464, "EPHEMERIS_TYPE": 0, "CLASSIFICATION_TYPE": "U", "NORAD_CAT_ID": 66998, "ELEMENT_SET_NO": 999, "REV_AT_EPOCH": 192, "BSTAR": 0.0004037169, "MEAN_MOTION_DOT": 5.67e-05, "MEAN_MOTION_DDOT": 0}, "tle": {"line1": "1 66998U 25292F   25356.91316713  .00005670  00000+0  40372-3 0  9996", "line2": "2 66998  97.6541  69.3773 0015050 240.3264 119.6464 15.04923856  1925"}}, "geometry": {"type": "Point", "coordinates": [-108.46027251597363, 13.627981117108094]}}, {"type": "Feature", "properties": {"norad_id": 66999, "name": "2025-292G", "group": "last-30-days", "lat": 10.672703914273264, "lon": -108.87366278642138, "alt_km": 550.0122532582263, "timestamp": "2025-12-23T05:02:10.752317+00:00", "meta": {"OBJECT_NAME": "2025-292G", "OBJECT_ID": "2025-292G", "EPOCH": "2025-12-22T21:54:11.289024", "MEAN_MOTION": 15.04987782, "ECCENTRICITY": 0.00145637, "INCLINATION": 97.6549, "RA_OF_ASC_NODE": 69.3793, "ARG_OF_PERICENTER": 242.3811, "MEAN_ANOMALY": 117.5937, "EPHEMERIS_TYPE": 0, "CLASSIFICATION_TYPE": "U", "NORAD_CAT_ID": 66999, "ELEMENT_SET_NO": 999, "REV_AT_EPOCH": 192, "BSTAR": 0.0004135965, "MEAN_MOTION_DOT": 5.819e-05, "MEAN_MOTION_DDOT": 0}, "tle": {"line1": "1 66999U 25292G   25356.91263066  .00005819  00000+0  41360-3 0  9992", "line2": "2 66999  97.6549  69.3793 0014563 242.3811 117.5937 15.04987782  1924"}}, "geometry": {"type": "Point", "coordinates": [-108.87366278642138, 10.672703914273264]}}]}